[{"OBJECT_NAME":"HST","OBJECT_ID":"1990-037B","EPOCH":"2026-03-05T02:44:22.473600","MEAN_MOTION":15.2939758,"ECCENTRICITY":0.00017647,"INCLINATION":28.4704,"RA_OF_ASC_NODE":71.2102,"ARG_OF_PERICENTER":80.5855,"MEAN_ANOMALY":279.494,"EPHEMERIS_TYPE":0,"CLASSIFICATION_TYPE":"U","NORAD_CAT_ID":20580,"ELEMENT_SET_NO":999,"REV_AT_EPOCH":77261,"BSTAR":0.00032208786,"MEAN_MOTION_DOT":9.685e-5,"MEAN_MOTION_DDOT":0},{"OBJECT_NAME":"POLAR","OBJECT_ID":"1996-013A","EPOCH":"2026-03-04T06:52:54.680736","MEAN_MOTION":1.29845819,"ECCENTRICITY":0.63638561,"INCLINATION":79.7435,"RA_OF_ASC_NODE":228.2507,"ARG_OF_PERICENTER":212.6367,"MEAN_ANOMALY":83.7638,"EPHEMERIS_TYPE":0,"CLASSIFICATION_TYPE":"U","NORAD_CAT_ID":23802,"ELEMENT_SET_NO":999,"REV_AT_EPOCH":14349,"BSTAR":0,"MEAN_MOTION_DOT":1.7e-6,"MEAN_MOTION_DDOT":0},{"OBJECT_NAME":"SWAS","OBJECT_ID":"1998-071A","EPOCH":"2026-03-05T05:25:07.338432","MEAN_MOTION":15.08842548,"ECCENTRICITY":0.00037073,"INCLINATION":69.8963,"RA_OF_ASC_NODE":135.4657,"ARG_OF_PERICENTER":20.3558,"MEAN_ANOMALY":339.7753,"EPHEMERIS_TYPE":0,"CLASSIFICATION_TYPE":"U","NORAD_CAT_ID":25560,"ELEMENT_SET_NO":999,"REV_AT_EPOCH":48158,"BSTAR":0.00037763132,"MEAN_MOTION_DOT":5.858e-5,"MEAN_MOTION_DDOT":0},{"OBJECT_NAME":"CXO","OBJECT_ID":"1999-040B","EPOCH":"2026-03-07T05:51:16.436736","MEAN_MOTION":0.37807298,"ECCENTRICITY":0.79978948,"INCLINATION":54.5001,"RA_OF_ASC_NODE":119.7161,"ARG_OF_PERICENTER":310.7431,"MEAN_ANOMALY":0.4039,"EPHEMERIS_TYPE":0,"CLASSIFICATION_TYPE":"U","NORAD_CAT_ID":25867,"ELEMENT_SET_NO":999,"REV_AT_EPOCH":1694,"BSTAR":0,"MEAN_MOTION_DOT":8.3e-6,"MEAN_MOTION_DDOT":0},{"OBJECT_NAME":"XMM-NEWTON","OBJECT_ID":"1999-066A","EPOCH":"2026-03-02T15:24:13.123584","MEAN_MOTION":0.50131664,"ECCENTRICITY":0.47125523,"INCLINATION":65.0189,"RA_OF_ASC_NODE":284.3763,"ARG_OF_PERICENTER":66.813,"MEAN_ANOMALY":359.9781,"EPHEMERIS_TYPE":0,"CLASSIFICATION_TYPE":"U","NORAD_CAT_ID":25989,"ELEMENT_SET_NO":999,"REV_AT_EPOCH":2247,"BSTAR":0,"MEAN_MOTION_DOT":6.2e-7,"MEAN_MOTION_DDOT":0},{"OBJECT_NAME":"TERRA","OBJECT_ID":"1999-068A","EPOCH":"2026-03-05T06:20:38.879232","MEAN_MOTION":14.61009456,"ECCENTRICITY":0.00024324,"INCLINATION":97.9601,"RA_OF_ASC_NODE":117.8679,"ARG_OF_PERICENTER":161.9987,"MEAN_ANOMALY":262.9617,"EPHEMERIS_TYPE":0,"CLASSIFICATION_TYPE":"U","NORAD_CAT_ID":25994,"ELEMENT_SET_NO":999,"REV_AT_EPOCH":39443,"BSTAR":0.00013890629,"MEAN_MOTION_DOT":6.37e-6,"MEAN_MOTION_DDOT":0},{"OBJECT_NAME":"CLUSTER II-FM7 (SAMBA)","OBJECT_ID":"2000-041A","EPOCH":"2026-03-04T06:04:28.507872","MEAN_MOTION":0.44785609,"ECCENTRICITY":0.89087774,"INCLINATION":148.992,"RA_OF_ASC_NODE":34.5676,"ARG_OF_PERICENTER":250.6745,"MEAN_ANOMALY":359.7226,"EPHEMERIS_TYPE":0,"CLASSIFICATION_TYPE":"U","NORAD_CAT_ID":26410,"ELEMENT_SET_NO":999,"REV_AT_EPOCH":1983,"BSTAR":0,"MEAN_MOTION_DOT":3.639e-5,"MEAN_MOTION_DDOT":0},{"OBJECT_NAME":"CLUSTER II-FM8 (TANGO)","OBJECT_ID":"2000-045B","EPOCH":"2026-02-18T01:30:32.809536","MEAN_MOTION":0.44405995,"ECCENTRICITY":0.88900451,"INCLINATION":149.0711,"RA_OF_ASC_NODE":33.5376,"ARG_OF_PERICENTER":249.457,"MEAN_ANOMALY":359.4916,"EPHEMERIS_TYPE":0,"CLASSIFICATION_TYPE":"U","NORAD_CAT_ID":26464,"ELEMENT_SET_NO":999,"REV_AT_EPOCH":1976,"BSTAR":0,"MEAN_MOTION_DOT":4.776e-5,"MEAN_MOTION_DDOT":0},{"OBJECT_NAME":"ODIN","OBJECT_ID":"2001-007A","EPOCH":"2026-03-05T00:56:47.517504","MEAN_MOTION":15.5812429,"ECCENTRICITY":0.00042398,"INCLINATION":97.4074,"RA_OF_ASC_NODE":99.8946,"ARG_OF_PERICENTER":151.7884,"MEAN_ANOMALY":208.3602,"EPHEMERIS_TYPE":0,"CLASSIFICATION_TYPE":"U","NORAD_CAT_ID":26702,"ELEMENT_SET_NO":999,"REV_AT_EPOCH":37311,"BSTAR":0.0006465608,"MEAN_MOTION_DOT":0.00048782,"MEAN_MOTION_DDOT":0},{"OBJECT_NAME":"TIMED","OBJECT_ID":"2001-055B","EPOCH":"2026-03-05T03:54:00.154656","MEAN_MOTION":14.95005104,"ECCENTRICITY":0.00029931,"INCLINATION":74.066,"RA_OF_ASC_NODE":84.4325,"ARG_OF_PERICENTER":281.0767,"MEAN_ANOMALY":79.0081,"EPHEMERIS_TYPE":0,"CLASSIFICATION_TYPE":"U","NORAD_CAT_ID":26998,"ELEMENT_SET_NO":999,"REV_AT_EPOCH":31527,"BSTAR":0.00016513889,"MEAN_MOTION_DOT":1.767e-5,"MEAN_MOTION_DDOT":0},{"OBJECT_NAME":"CORIOLIS","OBJECT_ID":"2003-001A","EPOCH":"2026-03-05T04:33:16.891776","MEAN_MOTION":14.19910683,"ECCENTRICITY":0.00145784,"INCLINATION":98.7161,"RA_OF_ASC_NODE":72.6509,"ARG_OF_PERICENTER":148.8502,"MEAN_ANOMALY":211.3542,"EPHEMERIS_TYPE":0,"CLASSIFICATION_TYPE":"U","NORAD_CAT_ID":27640,"ELEMENT_SET_NO":999,"REV_AT_EPOCH":19946,"BSTAR":0.00010799253,"MEAN_MOTION_DOT":1.86e-6,"MEAN_MOTION_DDOT":0},{"OBJECT_NAME":"SORCE","OBJECT_ID":"2003-004A","EPOCH":"2026-03-05T05:56:28.158432","MEAN_MOTION":15.0305762,"ECCENTRICITY":0.00164147,"INCLINATION":39.9902,"RA_OF_ASC_NODE":134.4199,"ARG_OF_PERICENTER":21.4427,"MEAN_ANOMALY":338.7051,"EPHEMERIS_TYPE":0,"CLASSIFICATION_TYPE":"U","NORAD_CAT_ID":27651,"ELEMENT_SET_NO":999,"REV_AT_EPOCH":25625,"BSTAR":0.00034770209,"MEAN_MOTION_DOT":4.633e-5,"MEAN_MOTION_DDOT":0},{"OBJECT_NAME":"MOST","OBJECT_ID":"2003-031D","EPOCH":"2026-03-05T07:19:02.564256","MEAN_MOTION":14.21297818,"ECCENTRICITY":0.00096941,"INCLINATION":98.7083,"RA_OF_ASC_NODE":73.4668,"ARG_OF_PERICENTER":186.2028,"MEAN_ANOMALY":173.903,"EPHEMERIS_TYPE":0,"CLASSIFICATION_TYPE":"U","NORAD_CAT_ID":27843,"ELEMENT_SET_NO":999,"REV_AT_EPOCH":17595,"BSTAR":7.2634667e-5,"MEAN_MOTION_DOT":1.15e-6,"MEAN_MOTION_DDOT":0},{"OBJECT_NAME":"SCISAT 1","OBJECT_ID":"2003-036A","EPOCH":"2026-03-05T07:02:08.515104","MEAN_MOTION":14.81301805,"ECCENTRICITY":0.00058637,"INCLINATION":73.9318,"RA_OF_ASC_NODE":17.7459,"ARG_OF_PERICENTER":110.5764,"MEAN_ANOMALY":249.6042,"EPHEMERIS_TYPE":0,"CLASSIFICATION_TYPE":"U","NORAD_CAT_ID":27858,"ELEMENT_SET_NO":999,"REV_AT_EPOCH":21606,"BSTAR":0.00017771311,"MEAN_MOTION_DOT":1.351e-5,"MEAN_MOTION_DDOT":0},{"OBJECT_NAME":"SWIFT","OBJECT_ID":"2004-047A","EPOCH":"2026-03-04T20:59:02.684832","MEAN_MOTION":15.58805646,"ECCENTRICITY":0.00031786,"INCLINATION":20.5531,"RA_OF_ASC_NODE":263.8342,"ARG_OF_PERICENTER":330.4239,"MEAN_ANOMALY":29.6025,"EPHEMERIS_TYPE":0,"CLASSIFICATION_TYPE":"U","NORAD_CAT_ID":28485,"ELEMENT_SET_NO":999,"REV_AT_EPOCH":17051,"BSTAR":0.0005886945,"MEAN_MOTION_DOT":0.00048516,"MEAN_MOTION_DDOT":0},{"OBJECT_NAME":"HINODE (SOLAR-B)","OBJECT_ID":"2006-041A","EPOCH":"2026-03-05T06:41:29.298048","MEAN_MOTION":14.68465917,"ECCENTRICITY":0.00161667,"INCLINATION":98.0627,"RA_OF_ASC_NODE":81.9382,"ARG_OF_PERICENTER":256.6821,"MEAN_ANOMALY":103.2582,"EPHEMERIS_TYPE":0,"CLASSIFICATION_TYPE":"U","NORAD_CAT_ID":29479,"ELEMENT_SET_NO":999,"REV_AT_EPOCH":3962,"BSTAR":0.00017998694,"MEAN_MOTION_DOT":9.95e-6,"MEAN_MOTION_DDOT":0},{"OBJECT_NAME":"SHIJIAN-6 02A (SJ-6 02A)","OBJECT_ID":"2006-046A","EPOCH":"2026-03-05T06:54:51.692256","MEAN_MOTION":15.15626328,"ECCENTRICITY":0.0004608,"INCLINATION":97.6505,"RA_OF_ASC_NODE":104.5987,"ARG_OF_PERICENTER":123.5667,"MEAN_ANOMALY":236.6006,"EPHEMERIS_TYPE":0,"CLASSIFICATION_TYPE":"U","NORAD_CAT_ID":29505,"ELEMENT_SET_NO":999,"REV_AT_EPOCH":5652,"BSTAR":0.00053750273,"MEAN_MOTION_DOT":0.00010155,"MEAN_MOTION_DDOT":0}]
