HST                     
1 20580U 90037B   26064.11414900  .00009685  00000+0  32209-3 0  9998
2 20580  28.4704  71.2102 0001764  80.5855 279.4940 15.29397580772611
POLAR                   
1 23802U 96013A   26063.28674399  .00000170  00000+0  00000+0 0  9995
2 23802  79.7435 228.2507 6363856 212.6367  83.7638  1.29845819143495
SWAS                    
1 25560U 98071A   26064.22577938  .00005858  00000+0  37763-3 0  9998
2 25560  69.8963 135.4657 0003707  20.3558 339.7753 15.08842548481580
CXO                     
1 25867U 99040B   26066.24394024  .00000830  00000+0  00000+0 0  9997
2 25867  54.5001 119.7161 7997894 310.7431   0.4039  0.37807298 16943
XMM-NEWTON              
1 25989U 99066A   26061.64181856  .00000062  00000+0  00000+0 0  9993
2 25989  65.0189 284.3763 4712552  66.8130 359.9781  0.50131664 22470
TERRA                   
1 25994U 99068A   26064.26433888  .00000637  00000+0  13891-3 0  9991
2 25994  97.9601 117.8679 0002432 161.9987 262.9617 14.61009456394436
CLUSTER II-FM7 (SAMBA)  
1 26410U 00041A   26063.25310773  .00003639  00000+0  00000+0 0  9992
2 26410 148.9920  34.5676 8908777 250.6745 359.7226  0.44785609 19832
CLUSTER II-FM8 (TANGO)  
1 26464U 00045B   26049.06287974  .00004776  00000+0  00000+0 0  9997
2 26464 149.0711  33.5376 8890045 249.4570 359.4916  0.44405995 19769
ODIN                    
1 26702U 01007A   26064.03943886  .00048782  00000+0  64656-3 0  9992
2 26702  97.4074  99.8946 0004239 151.7884 208.3602 15.58124290373110
TIMED                   
1 26998U 01055B   26064.16250179  .00001767  00000+0  16514-3 0  9994
2 26998  74.0660  84.4325 0002993 281.0767  79.0081 14.95005104315271
CORIOLIS                
1 27640U 03001A   26064.18977884  .00000186  00000+0  10799-3 0  9996
2 27640  98.7161  72.6509 0014578 148.8502 211.3542 14.19910683199464
SORCE                   
1 27651U 03004A   26064.24754813  .00004633  00000+0  34770-3 0  9999
2 27651  39.9902 134.4199 0016414  21.4427 338.7051 15.03057620256258
MOST                    
1 27843U 03031D   26064.30489079  .00000115  00000+0  72635-4 0  9992
2 27843  98.7083  73.4668 0009694 186.2028 173.9030 14.21297818175953
SCISAT 1                
1 27858U 03036A   26064.29315411  .00001351  00000+0  17771-3 0  9991
2 27858  73.9318  17.7459 0005863 110.5764 249.6042 14.81301805216065
SWIFT                   
1 28485U 04047A   26063.87433663  .00048516  00000+0  58869-3 0  9991
2 28485  20.5531 263.8342 0003178 330.4239  29.6025 15.58805646170512
HINODE (SOLAR-B)        
1 29479U 06041A   26064.27881132  .00000995  00000+0  17999-3 0  9992
2 29479  98.0627  81.9382 0016166 256.6821 103.2582 14.68465917 39628
SHIJIAN-6 02A (SJ-6 02A)
1 29505U 06046A   26064.28809829  .00010155  00000+0  53750-3 0  9995
2 29505  97.6505 104.5987 0004608 123.5667 236.6006 15.15626328 56527
